{
  "type": "FeatureCollection",
  "name": "Puerto de la Cruz Stops",
  "features": [
    {
      "type": "Feature",
      "properties": {
        "Name": "1. Taoro-Park und das Gran Hotel Taoro",
        "audio": "https://xzymbvnljudyypdyuisf.supabase.co/storage/v1/object/public/puerto-cruz_de/1.mp3"
      },
      "geometry": {
        "type": "Point",
        "coordinates": [-16.547949, 28.4118131]
      }
    },
    {
      "type": "Feature",
      "properties": {
        "Name": "2. Kolumbus-Avenue (Avenida de Cristóbal Colón)",
        "audio": "https://xzymbvnljudyypdyuisf.supabase.co/storage/v1/object/public/puerto-cruz_de/2.mp3"
      },
      "geometry": {
        "type": "Point",
        "coordinates": [-16.5417437, 28.417542]
      }
    },
    {
      "type": "Feature",
      "properties": {
        "Name": "2.1 Städtischer Tourismuskomplex Costa Martiánez",
        "audio": "https://xzymbvnljudyypdyuisf.supabase.co/storage/v1/object/public/puerto-cruz_de/2.mp3"
      },
      "geometry": {
        "type": "Point",
        "coordinates": [-16.544278, 28.4187585]
      }
    },
    {
      "type": "Feature",
      "properties": {
        "Name": "3. Aussichtsplatz der San Telmo-Kapelle",
        "audio": "https://xzymbvnljudyypdyuisf.supabase.co/storage/v1/object/public/puerto-cruz_de/3.mp3"
      },
      "geometry": {
        "type": "Point",
        "coordinates": [-16.5456288, 28.4176278]
      }
    },
    {
      "type": "Feature",
      "properties": {
        "Name": "San Telmo-Aussichtspunkt",
        "audio": "https://xzymbvnljudyypdyuisf.supabase.co/storage/v1/object/public/puerto-cruz_de/3.mp3"
      },
      "geometry": {
        "type": "Point",
        "coordinates": [-16.5463681, 28.4173442]
      }
    },
    {
      "type": "Feature",
      "properties": {
        "Name": "4. Kirche Unserer Lieben Frau von Peña de Francia",
        "audio": "https://xzymbvnljudyypdyuisf.supabase.co/storage/v1/object/public/puerto-cruz_de/4.mp3"
      },
      "geometry": {
        "type": "Point",
        "coordinates": [-16.5481873, 28.4170105]
      }
    },
    {
      "type": "Feature",
      "properties": {
        "Name": "5. Europa-Platz",
        "audio": "https://xzymbvnljudyypdyuisf.supabase.co/storage/v1/object/public/puerto-cruz_de/5.mp3"
      },
      "geometry": {
        "type": "Point",
        "coordinates": [-16.5491026, 28.4183182]
      }
    },
    {
      "type": "Feature",
      "properties": {
        "Name": "5.1 Rathaus von Puerto de la Cruz",
        "audio": "https://xzymbvnljudyypdyuisf.supabase.co/storage/v1/object/public/puerto-cruz_de/5.mp3"
      },
      "geometry": {
        "type": "Point",
        "coordinates": [-16.5485698, 28.4179882]
      }
    },
    {
      "type": "Feature",
      "properties": {
        "Name": "5.2 Altes Zollhaus (Casa de la Aduana)",
        "audio": "https://xzymbvnljudyypdyuisf.supabase.co/storage/v1/object/public/puerto-cruz_de/5.mp3"
      },
      "geometry": {
        "type": "Point",
        "coordinates": [-16.5501121, 28.4179927]
      }
    },
    {
      "type": "Feature",
      "properties": {
        "Name": "5.3 Miranda-Haus (Casa de Miranda)",
        "audio": "https://xzymbvnljudyypdyuisf.supabase.co/storage/v1/object/public/puerto-cruz_de/5.mp3"
      },
      "geometry": {
        "type": "Point",
        "coordinates": [-16.5488618, 28.4178853]
      }
    },
    {
      "type": "Feature",
      "properties": {
        "Name": "6. San Francisco-Kirche",
        "audio": "https://xzymbvnljudyypdyuisf.supabase.co/storage/v1/object/public/puerto-cruz_de/6.mp3"
      },
      "geometry": {
        "type": "Point",
        "coordinates": [-16.5499245, 28.4168196]
      }
    },
    {
      "type": "Feature",
      "properties": {
        "Name": "7. Pfützen-Platz (Plaza del Charco)",
        "audio": "https://xzymbvnljudyypdyuisf.supabase.co/storage/v1/object/public/puerto-cruz_de/7.mp3"
      },
      "geometry": {
        "type": "Point",
        "coordinates": [-16.5504946, 28.4166788]
      }
    },
    {
      "type": "Feature",
      "properties": {
        "Name": "8. Das Viertel La Ranilla",
        "audio": "https://xzymbvnljudyypdyuisf.supabase.co/storage/v1/object/public/puerto-cruz_de/8.0.mp3"
      },
      "geometry": {
        "type": "Point",
        "coordinates": [-16.5538396, 28.4175173]
      }
    },
    {
      "type": "Feature",
      "properties": {
        "Name": "8.1 Víctor Ash - Mequinez-Straße, 2",
        "audio": "https://xzymbvnljudyypdyuisf.supabase.co/storage/v1/object/public/puerto-cruz_de/8.1.mp3"
      },
      "geometry": {
        "type": "Point",
        "coordinates": [-16.5516327, 28.4177858]
      }
    },
    {
      "type": "Feature",
      "properties": {
        "Name": "8.2 Ro.Ro - Mequinez-Straße, 4",
        "audio": "https://xzymbvnljudyypdyuisf.supabase.co/storage/v1/object/public/puerto-cruz_de/8.2.mp3"
      },
      "geometry": {
        "type": "Point",
        "coordinates": [-16.5520908, 28.4177605]
      }
    },
    {
      "type": "Feature",
      "properties": {
        "Name": "8.3 Iker Muro - Mequinez-Straße, 21",
        "audio": "https://xzymbvnljudyypdyuisf.supabase.co/storage/v1/object/public/puerto-cruz_de/8.3.mp3"
      },
      "geometry": {
        "type": "Point",
        "coordinates": [-16.5524578, 28.4175767]
      }
    },
    {
      "type": "Feature",
      "properties": {
        "Name": "8.4 Sex - Mequinez-Straße, 66",
        "audio": "https://xzymbvnljudyypdyuisf.supabase.co/storage/v1/object/public/puerto-cruz_de/8.4.mp3"
      },
      "geometry": {
        "type": "Point",
        "coordinates": [-16.5442802, 28.4176471]
      }
    },
    {
      "type": "Feature",
      "properties": {
        "Name": "8.5 Juliana - Maretas-Straße, 11",
        "audio": "https://xzymbvnljudyypdyuisf.supabase.co/storage/v1/object/public/puerto-cruz_de/8.5.mp3"
      },
      "geometry": {
        "type": "Point",
        "coordinates": [-16.5543779, 28.4166145]
      }
    },
    {
      "type": "Feature",
      "properties": {
        "Name": "8.6 Dulk - Peñita-Straße, 6",
        "audio": "https://xzymbvnljudyypdyuisf.supabase.co/storage/v1/object/public/puerto-cruz_de/8.6.mp3"
      },
      "geometry": {
        "type": "Point",
        "coordinates": [-16.5538448, 28.4168053]
      }
    },
    {
      "type": "Feature",
      "properties": {
        "Name": "8.7 3ttman - El Lomo-Straße, 28",
        "audio": "https://xzymbvnljudyypdyuisf.supabase.co/storage/v1/object/public/puerto-cruz_de/8.7.mp3"
      },
      "geometry": {
        "type": "Point",
        "coordinates": [-16.5533527, 28.417294]
      }
    },
    {
      "type": "Feature",
      "properties": {
        "Name": "8.8 Kob - Teobaldo Power-Straße, 28",
        "audio": "https://xzymbvnljudyypdyuisf.supabase.co/storage/v1/object/public/puerto-cruz_de/8.8.mp3"
      },
      "geometry": {
        "type": "Point",
        "coordinates": [-16.5528499, 28.4162771]
      }
    },
    {
      "type": "Feature",
      "properties": {
        "Name": "8.9 Belin - Puerto Viejo-Straße, 17",
        "audio": "https://xzymbvnljudyypdyuisf.supabase.co/storage/v1/object/public/puerto-cruz_de/8.9.mp3"
      },
      "geometry": {
        "type": "Point",
        "coordinates": [-16.5524201, 28.4158471]
      }
    },
    {
      "type": "Feature",
      "properties": {
        "Name": "8.10 Sabotaje al Montaje - Teobaldo Power-Straße, 16",
        "audio": "https://xzymbvnljudyypdyuisf.supabase.co/storage/v1/object/public/puerto-cruz_de/8.10.mp3"
      },
      "geometry": {
        "type": "Point",
        "coordinates": [-16.5529532, 28.4168439]
      }
    },
    {
      "type": "Feature",
      "properties": {
        "Name": "8.11 FEOFL!P - Teobaldo Power-Straße, 8",
        "audio": "https://xzymbvnljudyypdyuisf.supabase.co/storage/v1/object/public/puerto-cruz_de/8.11.mp3"
      },
      "geometry": {
        "type": "Point",
        "coordinates": [-16.5529532, 28.4168439]
      }
    },
    {
      "type": "Feature",
      "properties": {
        "Name": "8.12 Roa - El Lomo-Straße, 7",
        "audio": "https://xzymbvnljudyypdyuisf.supabase.co/storage/v1/object/public/puerto-cruz_de/8.12.mp3"
      },
      "geometry": {
        "type": "Point",
        "coordinates": [-16.5522205, 28.4170627]
      }
    },
    {
      "type": "Feature",
      "properties": {
        "Name": "8.13 Liqen - Cruz Verde-Straße, 3",
        "audio": "https://xzymbvnljudyypdyuisf.supabase.co/storage/v1/object/public/puerto-cruz_de/8.13.mp3"
      },
      "geometry": {
        "type": "Point",
        "coordinates": [-16.5521765, 28.4174288]
      }
    },
    {
      "type": "Feature",
      "properties": {
        "Name": "9. San Felipe-Festung (Castillo de San Felipe)",
        "audio": "https://xzymbvnljudyypdyuisf.supabase.co/storage/v1/object/public/puerto-cruz_de/9.mp3"
      },
      "geometry": {
        "type": "Point",
        "coordinates": [-16.5584324, 28.4143524]
      }
    },
    {
      "type": "Feature",
      "properties": {
        "Name": "10. Strand Jardín (Playa Jardín)",
        "audio": "https://xzymbvnljudyypdyuisf.supabase.co/storage/v1/object/public/puerto-cruz_de/10.mp3"
      },
      "geometry": {
        "type": "Point",
        "coordinates": [-16.5585252, 28.4127752]
      }
    }
  ]
}